{
    "week": 293,
    "satellites": [
        {
            "Name": "COSMOS 2433 (720)",
            "Line1": "1 32275U 07052A   24323.60496534 -.00000057  00000+0  00000+0 0  9995",
            "Line2": "2 32275  65.8732 335.2363 0005847 250.4322 109.5375  2.13104015132833",
            "SatelliteNumber": "32275",
            "Classification": "U",
            "LaunchYear": "07",
            "LaunchNumber": "052",
            "PieceOfLaunch": "A",
            "EpochYear": "24",
            "EpochDay": 323.60496534,
            "FirstDerivativeMeanMotion": -5.7e-07,
            "SecondDerivativeMeanMotion": "00000+0",
            "BSTAR": "00000+0",
            "SetNumber": "999",
            "Inclination": 65.8732,
            "RAAN": 335.2363,
            "Eccentricity": 0.0005847,
            "ArgumentOfPerigee": 250.4322,
            "MeanAnomaly": 109.5375,
            "MeanMotion": 2.13104015,
            "RevolutionNumber": "13283"
        },
        {
            "Name": "COSMOS 2432 (719)",
            "Line1": "1 32276U 07052B   24323.44632644 -.00000057  00000+0  00000+0 0  9992",
            "Line2": "2 32276  65.8885 335.3584 0011174 309.9849 234.0110  2.13103121132820",
            "SatelliteNumber": "32276",
            "Classification": "U",
            "LaunchYear": "07",
            "LaunchNumber": "052",
            "PieceOfLaunch": "B",
            "EpochYear": "24",
            "EpochDay": 323.44632644,
            "FirstDerivativeMeanMotion": -5.7e-07,
            "SecondDerivativeMeanMotion": "00000+0",
            "BSTAR": "00000+0",
            "SetNumber": "999",
            "Inclination": 65.8885,
            "RAAN": 335.3584,
            "Eccentricity": 0.0011174,
            "ArgumentOfPerigee": 309.9849,
            "MeanAnomaly": 234.011,
            "MeanMotion": 2.13103121,
            "RevolutionNumber": "13282"
        },
        {
            "Name": "COSMOS 2434 (721)",
            "Line1": "1 32393U 07065A   24323.77268556  .00000026  00000+0  00000+0 0  9994",
            "Line2": "2 32393  64.3155 211.3421 0003676  69.7319 310.9408  2.13101281131545",
            "SatelliteNumber": "32393",
            "Classification": "U",
            "LaunchYear": "07",
            "LaunchNumber": "065",
            "PieceOfLaunch": "A",
            "EpochYear": "24",
            "EpochDay": 323.77268556,
            "FirstDerivativeMeanMotion": 2.6e-07,
            "SecondDerivativeMeanMotion": "00000+0",
            "BSTAR": "00000+0",
            "SetNumber": "999",
            "Inclination": 64.3155,
            "RAAN": 211.3421,
            "Eccentricity": 0.0003676,
            "ArgumentOfPerigee": 69.7319,
            "MeanAnomaly": 310.9408,
            "MeanMotion": 2.13101281,
            "RevolutionNumber": "13154"
        },
        {
            "Name": "COSMOS 2436 (723)",
            "Line1": "1 32395U 07065C   24323.33740699  .00000032  00000+0  00000+0 0  9998",
            "Line2": "2 32395  64.3241 211.4230 0017213   5.4206 176.0684  2.13100000131451",
            "SatelliteNumber": "32395",
            "Classification": "U",
            "LaunchYear": "07",
            "LaunchNumber": "065",
            "PieceOfLaunch": "C",
            "EpochYear": "24",
            "EpochDay": 323.33740699,
            "FirstDerivativeMeanMotion": 3.2e-07,
            "SecondDerivativeMeanMotion": "00000+0",
            "BSTAR": "00000+0",
            "SetNumber": "999",
            "Inclination": 64.3241,
            "RAAN": 211.423,
            "Eccentricity": 0.0017213,
            "ArgumentOfPerigee": 5.4206,
            "MeanAnomaly": 176.0684,
            "MeanMotion": 2.131,
            "RevolutionNumber": "13145"
        },
        {
            "Name": "COSMOS 2456 (730)",
            "Line1": "1 36111U 09070A   24323.54861355  .00000003  00000+0  00000+0 0  9990",
            "Line2": "2 36111  64.6886  90.6622 0001877 304.2269  59.0789  2.13103590116163",
            "SatelliteNumber": "36111",
            "Classification": "U",
            "LaunchYear": "09",
            "LaunchNumber": "070",
            "PieceOfLaunch": "A",
            "EpochYear": "24",
            "EpochDay": 323.54861355,
            "FirstDerivativeMeanMotion": 3e-08,
            "SecondDerivativeMeanMotion": "00000+0",
            "BSTAR": "00000+0",
            "SetNumber": "999",
            "Inclination": 64.6886,
            "RAAN": 90.6622,
            "Eccentricity": 0.0001877,
            "ArgumentOfPerigee": 304.2269,
            "MeanAnomaly": 59.0789,
            "MeanMotion": 2.1310359,
            "RevolutionNumber": "11616"
        },
        {
            "Name": "COSMOS 2457 (733)",
            "Line1": "1 36112U 09070B   24323.10172050  .00000000  00000+0  00000+0 0  9997",
            "Line2": "2 36112  64.6732  90.5327 0005890 152.0259   1.1535  2.13101034116159",
            "SatelliteNumber": "36112",
            "Classification": "U",
            "LaunchYear": "09",
            "LaunchNumber": "070",
            "PieceOfLaunch": "B",
            "EpochYear": "24",
            "EpochDay": 323.1017205,
            "FirstDerivativeMeanMotion": 0.0,
            "SecondDerivativeMeanMotion": "00000+0",
            "BSTAR": "00000+0",
            "SetNumber": "999",
            "Inclination": 64.6732,
            "RAAN": 90.5327,
            "Eccentricity": 0.000589,
            "ArgumentOfPerigee": 152.0259,
            "MeanAnomaly": 1.1535,
            "MeanMotion": 2.13101034,
            "RevolutionNumber": "11615"
        },
        {
            "Name": "COSMOS 2460 (732)",
            "Line1": "1 36402U 10007C   24322.51970455 -.00000054  00000+0  00000+0 0  9990",
            "Line2": "2 36402  65.7271 333.9114 0002982 262.4108 158.1523  2.13106151114442",
            "SatelliteNumber": "36402",
            "Classification": "U",
            "LaunchYear": "10",
            "LaunchNumber": "007",
            "PieceOfLaunch": "C",
            "EpochYear": "24",
            "EpochDay": 322.51970455,
            "FirstDerivativeMeanMotion": -5.4e-07,
            "SecondDerivativeMeanMotion": "00000+0",
            "BSTAR": "00000+0",
            "SetNumber": "999",
            "Inclination": 65.7271,
            "RAAN": 333.9114,
            "Eccentricity": 0.0002982,
            "ArgumentOfPerigee": 262.4108,
            "MeanAnomaly": 158.1523,
            "MeanMotion": 2.13106151,
            "RevolutionNumber": "11444"
        },
        {
            "Name": "COSMOS 2476 (744)",
            "Line1": "1 37867U 11064A   24323.42757831  .00000005  00000+0  00000+0 0  9997",
            "Line2": "2 37867  64.9587  92.3583 0022809 231.4842 310.5541  2.13101493101495",
            "SatelliteNumber": "37867",
            "Classification": "U",
            "LaunchYear": "11",
            "LaunchNumber": "064",
            "PieceOfLaunch": "A",
            "EpochYear": "24",
            "EpochDay": 323.42757831,
            "FirstDerivativeMeanMotion": 5e-08,
            "SecondDerivativeMeanMotion": "00000+0",
            "BSTAR": "00000+0",
            "SetNumber": "999",
            "Inclination": 64.9587,
            "RAAN": 92.3583,
            "Eccentricity": 0.0022809,
            "ArgumentOfPerigee": 231.4842,
            "MeanAnomaly": 310.5541,
            "MeanMotion": 2.13101493,
            "RevolutionNumber": "10149"
        },
        {
            "Name": "COSMOS 2477 (745)",
            "Line1": "1 37868U 11064B   24323.55875404  .00000006  00000+0  00000+0 0  9990",
            "Line2": "2 37868  64.9658  92.4279 0019953 231.7741 229.7922  2.13102915101499",
            "SatelliteNumber": "37868",
            "Classification": "U",
            "LaunchYear": "11",
            "LaunchNumber": "064",
            "PieceOfLaunch": "B",
            "EpochYear": "24",
            "EpochDay": 323.55875404,
            "FirstDerivativeMeanMotion": 6e-08,
            "SecondDerivativeMeanMotion": "00000+0",
            "BSTAR": "00000+0",
            "SetNumber": "999",
            "Inclination": 64.9658,
            "RAAN": 92.4279,
            "Eccentricity": 0.0019953,
            "ArgumentOfPerigee": 231.7741,
            "MeanAnomaly": 229.7922,
            "MeanMotion": 2.13102915,
            "RevolutionNumber": "10149"
        },
        {
            "Name": "COSMOS 2475 (743)",
            "Line1": "1 37869U 11064C   24323.59395377  .00000007  00000+0  00000+0 0  9992",
            "Line2": "2 37869  64.9729  92.4430 0024397 247.9829 198.3049  2.13101595101496",
            "SatelliteNumber": "37869",
            "Classification": "U",
            "LaunchYear": "11",
            "LaunchNumber": "064",
            "PieceOfLaunch": "C",
            "EpochYear": "24",
            "EpochDay": 323.59395377,
            "FirstDerivativeMeanMotion": 7e-08,
            "SecondDerivativeMeanMotion": "00000+0",
            "BSTAR": "00000+0",
            "SetNumber": "999",
            "Inclination": 64.9729,
            "RAAN": 92.443,
            "Eccentricity": 0.0024397,
            "ArgumentOfPerigee": 247.9829,
            "MeanAnomaly": 198.3049,
            "MeanMotion": 2.13101595,
            "RevolutionNumber": "10149"
        }
    ]
}